[{"OBJECT_NAME":"STARLINK-34312","OBJECT_ID":"2025-142R","EPOCH":"2026-03-09T23:21:11.585664","MEAN_MOTION":14.98336997,"ECCENTRICITY":0.00023746,"INCLINATION":70.0006,"RA_OF_ASC_NODE":313.7209,"ARG_OF_PERICENTER":269.784,"MEAN_ANOMALY":90.3047,"EPHEMERIS_TYPE":0,"CLASSIFICATION_TYPE":"U","NORAD_CAT_ID":64711,"ELEMENT_SET_NO":999,"REV_AT_EPOCH":3969,"BSTAR":0.0002393619,"MEAN_MOTION_DOT":2.765e-5,"MEAN_MOTION_DDOT":0},{"OBJECT_NAME":"COSMOS 2242","OBJECT_ID":"1993-024A","EPOCH":"2026-03-09T23:17:07.942848","MEAN_MOTION":14.96550444,"ECCENTRICITY":0.00151707,"INCLINATION":82.5157,"RA_OF_ASC_NODE":266.4481,"ARG_OF_PERICENTER":307.8411,"MEAN_ANOMALY":52.1437,"EPHEMERIS_TYPE":0,"CLASSIFICATION_TYPE":"U","NORAD_CAT_ID":22626,"ELEMENT_SET_NO":999,"REV_AT_EPOCH":78043,"BSTAR":0.00021609887,"MEAN_MOTION_DOT":2.488e-5,"MEAN_MOTION_DDOT":0}]
